NORAD_CAT_ID,OBJECT_NAME,OBJECT_TYPE,EPOCH,MEAN_MOTION,ECCENTRICITY,INCLINATION,RA_OF_ASC_NODE,ARG_OF_PERICENTER,MEAN_ANOMALY,BSTAR,MEAN_MOTION_DOT,MEAN_MOTION_DDOT,TLE_LINE0,TLE_LINE1,TLE_LINE2,SEMIMAJOR_AXIS,PERIOD,APOGEE,PERIGEE,DECAYED
51856.0,STARLINK-3568,PAYLOAD,2023-10-10 10:56:28,15.08849574,0.0001808,53.2178,15.1449,83.0751,277.0447,0.00029204,4.364e-05,0.0,0 STARLINK-3568,1 51856U 22022E   23283.45588715  .00004364  00000-0  29204-3 0  9991,2 51856  53.2178  15.1449 0001808  83.0751 277.0447 15.08849574 90010,6917.851,95.437,540.967,538.465,0.0
51856.0,STARLINK-3568,PAYLOAD,2023-10-10 12:31:51,15.08855871,0.000169,53.2184,14.846,92.2748,267.8438,0.00035732,5.406e-05,0.0,0 STARLINK-3568,1 51856U 22022E   23283.52212319  .00005406  00000-0  35732-3 0  9994,2 51856  53.2184  14.8460 0001690  92.2748 267.8438 15.08855871 90028,6917.832,95.437,540.866,538.528,0.0
51856.0,STARLINK-3568,PAYLOAD,2023-10-11 10:47:16,15.08835019,0.0001516,53.219,10.6829,105.7559,254.36,3.6758e-06,-2.29e-06,0.0,0 STARLINK-3568,1 51856U 22022E   23284.44949222 -.00000229  00000-0  36758-5 0  9996,2 51856  53.2190  10.6829 0001516 105.7559 254.3600 15.08835019 90164,6917.896,95.438,540.809,538.712,0.0
51856.0,STARLINK-3568,PAYLOAD,2023-10-11 12:22:39,15.08836628,0.0001406,53.2183,10.3851,81.9233,278.1918,-4.563e-05,-1.014e-05,0.0,0 STARLINK-3568,1 51856U 22022E   23284.51573238 -.00001014  00000-0 -45630-4 0  9996,2 51856  53.2183  10.3851 0001406  81.9233 278.1918 15.08836628 90174,6917.891,95.438,540.728,538.783,0.0
51856.0,STARLINK-3568,PAYLOAD,2023-10-12 12:13:26,15.08850139,0.0001459,53.2178,5.9257,82.9184,277.1974,0.00035169,5.315e-05,0.0,0 STARLINK-3568,1 51856U 22022E   23285.50933152  .00005315  00000-0  35169-3 0  9992,2 51856  53.2178   5.9257 0001459  82.9184 277.1974 15.08850139 90323,6917.849,95.437,540.724,538.705,0.0
51856.0,STARLINK-3568,PAYLOAD,2023-10-13 12:04:13,15.0885602,0.0001233,53.2173,1.4659,83.7889,276.3244,0.00050444,7.753e-05,0.0,0 STARLINK-3568,1 51856U 22022E   23286.50293164  .00007753  00000-0  50444-3 0  9996,2 51856  53.2173   1.4659 0001233  83.7889 276.3244 15.08856020 90478,6917.831,95.437,540.549,538.843,0.0
51856.0,STARLINK-3568,PAYLOAD,2023-10-13 21:36:31,15.08862857,0.0001222,53.2172,359.6818,85.6174,274.4958,0.00064086,9.932e-05,0.0,0 STARLINK-3568,1 51856U 22022E   23286.90036735  .00009932  00000-0  64086-3 0  9997,2 51856  53.2172 359.6818 0001222  85.6174 274.4958 15.08862857 90531,6917.811,95.436,540.521,538.83,0.0
51856.0,STARLINK-3568,PAYLOAD,2023-10-14 10:19:36,15.0885099,0.0001858,53.2187,357.3032,96.271,263.8494,0.00021427,3.125e-05,0.0,0 STARLINK-3568,1 51856U 22022E   23287.43028728  .00003125  00000-0  21427-3 0  9999,2 51856  53.2187 357.3032 0001858  96.2710 263.8494 15.08850990 90610,6917.847,95.437,540.997,538.426,0.0
51856.0,STARLINK-3568,PAYLOAD,2023-10-14 13:30:22,15.08857181,0.0001815,53.2191,356.7099,94.3562,265.7638,0.000524,8.065e-05,0.0,0 STARLINK-3568,1 51856U 22022E   23287.56276573  .00008065  00000-0  52400-3 0  9999,2 51856  53.2191 356.7099 0001815  94.3562 265.7638 15.08857181 90630,6917.828,95.436,540.948,538.437,0.0
51856.0,STARLINK-3568,PAYLOAD,2023-10-14 21:27:19,15.08832416,0.0002203,53.2179,355.2198,90.8489,269.2755,-0.00021801,-3.756e-05,0.0,0 STARLINK-3568,1 51856U 22022E   23287.89397395 -.00003756  00000-0 -21801-3 0  9996,2 51856  53.2179 355.2198 0002203  90.8489 269.2755 15.08832416 90689,6917.904,95.438,541.293,538.245,0.0
51856.0,STARLINK-3568,PAYLOAD,2023-10-15 03:48:52,15.08829644,0.0002205,53.2169,354.0319,92.1948,267.9297,-0.00021019,-3.631e-05,0.0,0 STARLINK-3568,1 51856U 22022E   23288.15893586 -.00003631  00000-0 -21019-3 0  9992,2 51856  53.2169 354.0319 0002205  92.1948 267.9297 15.08829644 90727,6917.912,95.438,541.302,538.252,0.0
51856.0,STARLINK-3568,PAYLOAD,2023-10-15 11:45:48,15.08825501,0.0001668,53.2173,352.5457,100.6449,259.4731,-0.00019154,-3.334e-05,0.0,0 STARLINK-3568,1 51856U 22022E   23288.49014189 -.00003334  00000-0 -19154-3 0  9990,2 51856  53.2173 352.5457 0001668 100.6449 259.4731 15.08825501 90773,6917.925,95.438,540.944,538.636,0.0
51856.0,STARLINK-3568,PAYLOAD,2023-10-15 21:18:07,15.08834069,0.0001664,53.2177,350.7614,98.072,262.0461,6.8968e-05,8.1e-06,0.0,0 STARLINK-3568,1 51856U 22022E   23288.88758208  .00000810  00000-0  68968-4 0  9992,2 51856  53.2177 350.7614 0001664  98.0720 262.0461 15.08834069 90836,6917.899,95.438,540.915,538.612,0.0
51856.0,STARLINK-3568,PAYLOAD,2023-10-16 08:25:49,15.08852236,0.0001704,53.2177,348.6804,103.3942,256.724,0.0010166,0.00015934,0.0,0 STARLINK-3568,1 51856U 22022E   23289.35126229  .00015934  00000-0  10166-2 0  9995,2 51856  53.2177 348.6804 0001704 103.3942 256.7240 15.08852236 90903,6917.843,95.437,540.887,538.529,0.0
51856.0,STARLINK-3568,PAYLOAD,2023-10-16 11:36:35,15.08869919,0.0001715,53.2168,348.0857,98.7214,261.3972,0.0017025,0.00026934,0.0,0 STARLINK-3568,1 51856U 22022E   23289.48374022  .00026934  00000-0  17025-2 0  9998,2 51856  53.2168 348.0857 0001715  98.7214 261.3972 15.08869919 90928,6917.789,95.436,540.84,538.468,0.0
51856.0,STARLINK-3568,PAYLOAD,2023-10-17 11:27:22,15.08846745,0.0001467,53.2166,343.6253,84.2017,275.9142,0.0015907,0.00025123,0.0,0 STARLINK-3568,1 51856U 22022E   23290.47733840  .00025123  00000-0  15907-2 0  9992,2 51856  53.2166 343.6253 0001467  84.2017 275.9142 15.08846745 91071,6917.86,95.437,540.74,538.71,0.0
51856.0,STARLINK-3568,PAYLOAD,2023-10-17 13:02:45,15.088497,0.0001495,53.2166,343.3279,83.5289,276.5873,0.0017817,0.00028189,0.0,0 STARLINK-3568,1 51856U 22022E   23290.54357832  .00028189  00000-0  17817-2 0  9990,2 51856  53.2166 343.3279 0001495  83.5289 276.5873 15.08849700 91083,6917.851,95.437,540.75,538.682,0.0
51856.0,STARLINK-3568,PAYLOAD,2023-10-18 03:21:13,15.08852227,0.0002,53.2172,340.652,85.6857,274.4364,0.0012666,0.00019934,0.0,0 STARLINK-3568,1 51856U 22022E   23291.13974104  .00019934  00000-0  12666-2 0  9998,2 51856  53.2172 340.6520 0002000  85.6857 274.4364 15.08852227 91176,6917.843,95.437,541.092,538.324,0.0
51856.0,STARLINK-3568,PAYLOAD,2023-10-18 09:42:46,15.08854484,0.000204,53.2173,339.4626,85.8256,274.2969,0.0013003,0.00020475,0.0,0 STARLINK-3568,1 51856U 22022E   23291.40470027  .00020475  00000-0  13003-2 0  9991,2 51856  53.2173 339.4626 0002040  85.8256 274.2969 15.08854484 91210,6917.836,95.437,541.112,538.29,0.0
51856.0,STARLINK-3568,PAYLOAD,2023-10-18 20:50:28,15.08853349,0.0001746,53.2178,337.3776,94.1605,265.9587,0.0015192,0.00023982,0.0,0 STARLINK-3568,1 51856U 22022E   23291.86838136  .00023982  00000-0  15192-2 0  9997,2 51856  53.2178 337.3776 0001746  94.1605 265.9587 15.08853349 91280,6917.84,95.437,540.912,538.497,0.0
51856.0,STARLINK-3568,PAYLOAD,2023-10-19 09:33:32,15.08854383,0.0001641,53.2164,334.9995,95.2195,264.8984,0.00069736,0.00010832,0.0,0 STARLINK-3568,1 51856U 22022E   23292.39829787  .00010832  00000-0  69736-3 0  9992,2 51856  53.2164 334.9995 0001641  95.2195 264.8984 15.08854383 91368,6917.836,95.437,540.837,538.566,0.0
51856.0,STARLINK-3568,PAYLOAD,2023-10-20 03:02:47,15.08845106,0.0001672,53.216,331.7295,97.9193,262.1989,0.0002447,3.609e-05,0.0,0 STARLINK-3568,1 51856U 22022E   23293.12694021  .00003609  00000-0  24470-3 0  9995,2 51856  53.2160 331.7295 0001672  97.9193 262.1989 15.08845106 91474,6917.865,95.437,540.886,538.573,0.0
51856.0,STARLINK-3568,PAYLOAD,2023-10-20 09:24:20,15.0884454,0.0001946,53.2181,330.5388,111.5093,248.6107,0.00017201,2.451e-05,0.0,0 STARLINK-3568,1 51856U 22022E   23293.39189897  .00002451  00000-0  17201-3 0  9992,2 51856  53.2181 330.5388 0001946 111.5093 248.6107 15.08844540 91510,6917.867,95.437,541.078,538.385,0.0
51856.0,STARLINK-3568,PAYLOAD,2023-10-21 02:53:35,15.0883365,0.0001879,53.2186,327.27,102.0926,258.0276,-1.2671e-05,-4.9e-06,0.0,0 STARLINK-3568,1 51856U 22022E   23294.12054550 -.00000490  00000-0 -12671-4 0  9991,2 51856  53.2186 327.2700 0001879 102.0926 258.0276 15.08833650 91625,6917.9,95.438,541.065,538.465,0.0
51856.0,STARLINK-3568,PAYLOAD,2023-10-21 09:15:07,15.08841065,0.0001842,53.2185,326.0823,103.7356,256.3841,4.0106e-05,3.5e-06,0.0,0 STARLINK-3568,1 51856U 22022E   23294.38550307  .00000350  00000-0  40106-4 0  9997,2 51856  53.2185 326.0823 0001842 103.7356 256.3841 15.08841065 91664,6917.877,95.437,541.016,538.468,0.0
51856.0,STARLINK-3568,PAYLOAD,2023-10-22 09:05:54,15.08840955,0.0001751,53.2179,321.6213,104.7841,255.3345,0.00014553,2.029e-05,0.0,0 STARLINK-3568,1 51856U 22022E   23295.37910590  .00002029  00000-0  14553-3 0  9992,2 51856  53.2179 321.6213 0001751 104.7841 255.3345 15.08840955 91812,6917.877,95.437,540.954,538.531,0.0
51856.0,STARLINK-3568,PAYLOAD,2023-10-22 18:38:13,15.08836222,0.0001604,53.2171,319.8359,98.2078,261.9096,6.0416e-05,6.74e-06,0.0,0 STARLINK-3568,1 51856U 22022E   23295.77654818  .00000674  00000-0  60416-4 0  9998,2 51856  53.2171 319.8359 0001604  98.2078 261.9096 15.08836222 91874,6917.892,95.438,540.867,538.647,0.0
51856.0,STARLINK-3568,PAYLOAD,2023-10-23 18:29:01,15.08837615,0.0001709,53.2184,315.3755,92.1149,268.0039,3.8345e-05,3.22e-06,0.0,0 STARLINK-3568,1 51856U 22022E   23296.77015218  .00000322  00000-0  38345-4 0  9990,2 51856  53.2184 315.3755 0001709  92.1149 268.0039 15.08837615 92027,6917.888,95.438,540.935,538.57,0.0
51856.0,STARLINK-3568,PAYLOAD,2023-10-24 08:47:29,15.08846977,0.0001676,53.2179,312.6996,93.479,266.6394,0.00019236,2.775e-05,0.0,0 STARLINK-3568,1 51856U 22022E   23297.36630811  .00002775  00000-0  19236-3 0  9999,2 51856  53.2179 312.6996 0001676  93.4790 266.6394 15.08846977 92116,6917.859,95.437,540.883,538.565,0.0
51856.0,STARLINK-3568,PAYLOAD,2023-10-25 10:13:39,15.0884356,0.0001529,53.2179,307.94,95.6941,264.4225,0.00015504,2.181e-05,0.0,0 STARLINK-3568,1 51856U 22022E   23298.42615160  .00002181  00000-0  15504-3 0  9992,2 51856  53.2179 307.9400 0001529  95.6941 264.4225 15.08843560 92273,6917.87,95.437,540.792,538.677,0.0
